OBJECT_NAME,OBJECT_ID,EPOCH,MEAN_MOTION,ECCENTRICITY,INCLINATION,RA_OF_ASC_NODE,ARG_OF_PERICENTER,MEAN_ANOMALY,EPHEMERIS_TYPE,CLASSIFICATION_TYPE,NORAD_CAT_ID,ELEMENT_SET_NO,REV_AT_EPOCH,BSTAR,MEAN_MOTION_DOT,MEAN_MOTION_DDOT
COSMOS 2251 DEB,1993-036AFV,2024-05-27T01:34:18.172704,14.3611177,0.0111341,73.8869,286.8952,18.4508,342.0631,0,U,34997,999,78771,0.0013639,4.237e-05,0
COSMOS 2251 DEB,1993-036AFW,2024-06-01T09:22:42.756960,14.4492167,0.0020068,74.0127,127.5309,42.7795,110.0067,0,U,34998,999,79327,0.00084307,2.919e-05,0
COSMOS 2251 DEB,1993-036AFY,2024-06-01T06:52:45.518016,14.76387199,0.0055226,74.0327,264.3213,120.9195,239.7425,0,U,35000,999,80101,0.0024801,0.00017683,0
COSMOS 2251 DEB,1993-036AFZ,2024-06-01T04:55:44.245344,14.44352305,0.008195,74.0207,75.1629,350.1345,9.8198,0,U,35012,999,79479,0.00022032,7.61e-06,0
COSMOS 2251 DEB,1993-036AGB,2024-05-30T00:50:54.062880,14.5811811,0.0008243,74.0073,49.9066,323.0655,36.994,0,U,35014,999,63099,0.0013849,6.359e-05,0
COSMOS 2251 DEB,1993-036AGC,2024-05-30T12:12:01.079712,14.405011,0.0081379,73.9479,204.2595,199.6895,226.8557,0,U,35015,999,57339,0.001027,3.372e-05,0
COSMOS 2251 DEB,1993-036AGD,2024-05-30T14:28:10.154784,14.32569234,0.0118681,73.9312,248.0868,285.2814,135.9038,0,U,35016,999,78739,0.00045685,1.312e-05,0
COSMOS 2251 DEB,1993-036AGF,2024-05-31T20:18:34.686720,13.64048216,0.0355774,73.9783,309.846,333.4402,24.8855,0,U,35018,999,75542,0.0008149,9.73e-06,0
COSMOS 2251 DEB,1993-036AGH,2024-05-31T02:37:09.034176,14.6090492,0.0092385,74.049,191.4294,90.6511,270.5242,0,U,35020,999,80045,0.00029809,1.519e-05,0
COSMOS 2251 DEB,1993-036AGK,2024-05-26T17:34:28.198848,14.56247914,0.0050594,74.0274,318.721,297.342,62.2599,0,U,35022,999,80277,0.00052327,2.325e-05,0
COSMOS 2251 DEB,1993-036AGL,2024-06-01T14:47:31.255008,14.71571558,0.0052077,74.0471,239.7008,103.1014,324.9333,0,U,35023,999,79988,0.0015201,9.633e-05,0
COSMOS 2251 DEB,1993-036AGN,2024-05-30T18:40:44.941152,14.67292853,0.0091343,73.9399,77.7645,121.6248,239.3874,0,U,35025,999,80398,0.0005218,3.101e-05,0
COSMOS 2251 DEB,1993-036AGP,2024-05-30T02:38:23.280288,14.52928302,0.0085054,74.0439,298.5316,195.1983,285.1655,0,U,35026,999,79984,0.00013747,5.63e-06,0
COSMOS 2251 DEB,1993-036AGR,2024-06-01T12:39:01.401984,14.55580646,0.0084404,74.0385,251.4745,167.7466,204.1003,0,U,35028,999,80146,0.00015666,6.86e-06,0
COSMOS 2251 DEB,1993-036AGU,2024-05-28T12:51:08.929728,14.3710044,0.0017612,74.0407,216.0419,89.6453,270.6719,0,U,35031,999,57189,0.00020584,5.86e-06,0
COSMOS 2251 DEB,1993-036AGV,2024-05-30T23:30:57.183264,14.50506415,0.0074653,73.856,0.8223,322.5158,106.0678,0,U,35032,999,79518,0.0011662,4.704e-05,0
COSMOS 2251 DEB,1993-036AGW,2024-05-25T18:34:28.104096,14.45477795,0.0014278,74.0274,157.4543,30.6922,329.5067,0,U,35033,999,57732,0.00092156,3.226e-05,0
COSMOS 2251 DEB,1993-036AHA,2024-05-29T22:14:51.180864,14.78218823,0.0028251,73.9947,214.3459,160.1593,200.0688,0,U,35037,999,80291,0.0016534,0.00012061,0
COSMOS 2251 DEB,1993-036AHB,2024-05-31T22:13:19.450848,14.18054729,0.0126473,74.1101,323.3317,93.5079,57.9998,0,U,35038,999,77610,0.00079175,1.733e-05,0
COSMOS 2251 DEB,1993-036AHG,2024-05-30T02:41:56.299488,14.45479499,0.015299,73.9648,43.8166,21.2161,339.5248,0,U,35043,999,78301,0.0037298,0.00015193,0
COSMOS 2251 DEB,1993-036AHJ,2024-05-29T03:39:15.003072,13.98228042,0.0185385,73.7211,324.6584,291.0679,67.0716,0,U,35045,999,76773,0.00062823,1.009e-05,0
COSMOS 2251 DEB,1993-036AHP,2024-05-25T20:25:15.930912,14.3923413,0.0017526,74.0386,210.8356,75.6372,284.6726,0,U,35060,999,79158,0.0005359,1.639e-05,0
COSMOS 2251 DEB,1993-036AHQ,2024-05-31T19:34:33.581280,14.60184493,0.0046257,74.048,301.1575,197.3341,162.6248,0,U,35061,999,80477,0.0011,5.354e-05,0
COSMOS 2251 DEB,1993-036AHR,2024-06-01T14:30:33.405984,14.1498407,0.0146932,74.0865,10.1916,149.1801,211.8073,0,U,35062,999,77564,0.0025002,5.349e-05,0
COSMOS 2251 DEB,1993-036AHU,2024-05-27T09:01:19.247808,14.42378492,0.0018588,74.0208,165.3709,64.738,295.57,0,U,35065,999,60203,0.00046727,1.522e-05,0
COSMOS 2251 DEB,1993-036AHW,2024-05-29T23:51:34.941888,14.95212469,0.0040248,73.7445,17.1885,96.532,264.0447,0,U,35067,999,80267,0.0032776,0.0003678,0
COSMOS 2251 DEB,1993-036AJA,2024-05-27T23:14:14.337600,14.87122903,0.00942,73.9385,238.5671,271.4571,87.5819,0,U,35071,999,59108,0.00055982,5.418e-05,0
COSMOS 2251 DEB,1993-036AJC,2024-05-26T21:45:55.595808,14.66734497,0.0028196,74.0149,10.0542,254.1687,105.6373,0,U,35073,999,59107,0.0017006,9.511e-05,0
COSMOS 2251 DEB,1993-036AJF,2024-05-27T12:34:27.771456,14.83166768,0.0049699,73.9641,78.1133,67.7308,292.9129,0,U,35076,999,772,0.0016759,0.00013969,0
COSMOS 2251 DEB,1993-036AJG,2024-06-01T06:18:43.786656,15.00019563,0.0035737,74.0226,86.5621,235.8973,248.9024,0,U,35278,999,79573,0.0064944,0.00082824,0
