COSMOS 2251 DEB         
1 34997U 93036AFV 24148.06548811  .00004237  00000+0  13639-2 0  9994
2 34997  73.8869 286.8952 0111341  18.4508 342.0631 14.36111770787712
COSMOS 2251 DEB         
1 34998U 93036AFW 24153.39077265  .00002919  00000+0  84307-3 0  9993
2 34998  74.0127 127.5309 0020068  42.7795 110.0067 14.44921670793274
COSMOS 2251 DEB         
1 35000U 93036AFY 24153.28663794  .00017683  00000+0  24801-2 0  9990
2 35000  74.0327 264.3213 0055226 120.9195 239.7425 14.76387199801018
COSMOS 2251 DEB         
1 35012U 93036AFZ 24153.20537321  .00000761  00000+0  22032-3 0  9995
2 35012  74.0207  75.1629 0081950 350.1345   9.8198 14.44352305794799
COSMOS 2251 DEB         
1 35014U 93036AGB 24151.03534795  .00006359  00000+0  13849-2 0  9992
2 35014  74.0073  49.9066 0008243 323.0655  36.9940 14.58118110630999
COSMOS 2251 DEB         
1 35015U 93036AGC 24151.50834583  .00003372  00000+0  10270-2 0  9990
2 35015  73.9479 204.2595 0081379 199.6895 226.8557 14.40501100573395
COSMOS 2251 DEB         
1 35016U 93036AGD 24151.60289531  .00001312  00000+0  45685-3 0  9990
2 35016  73.9312 248.0868 0118681 285.2814 135.9038 14.32569234787395
COSMOS 2251 DEB         
1 35018U 93036AGF 24152.84623480  .00000973  00000+0  81490-3 0  9990
2 35018  73.9783 309.8460 0355774 333.4402  24.8855 13.64048216755426
COSMOS 2251 DEB         
1 35020U 93036AGH 24152.10913234  .00001519  00000+0  29809-3 0  9994
2 35020  74.0490 191.4294 0092385  90.6511 270.5242 14.60904920800459
COSMOS 2251 DEB         
1 35022U 93036AGK 24147.73227082  .00002325  00000+0  52327-3 0  9995
2 35022  74.0274 318.7210 0050594 297.3420  62.2599 14.56247914802770
COSMOS 2251 DEB         
1 35023U 93036AGL 24153.61633397  .00009633  00000+0  15201-2 0  9998
2 35023  74.0471 239.7008 0052077 103.1014 324.9333 14.71571558799880
COSMOS 2251 DEB         
1 35025U 93036AGN 24151.77829793  .00003101  00000+0  52180-3 0  9994
2 35025  73.9399  77.7645 0091343 121.6248 239.3874 14.67292853803988
COSMOS 2251 DEB         
1 35026U 93036AGP 24151.10999167  .00000563  00000+0  13747-3 0  9990
2 35026  74.0439 298.5316 0085054 195.1983 285.1655 14.52928302799842
COSMOS 2251 DEB         
1 35028U 93036AGR 24153.52709956  .00000686  00000+0  15666-3 0  9993
2 35028  74.0385 251.4745 0084404 167.7466 204.1003 14.55580646801465
COSMOS 2251 DEB         
1 35031U 93036AGU 24149.53552002  .00000586  00000+0  20584-3 0  9995
2 35031  74.0407 216.0419 0017612  89.6453 270.6719 14.37100440571897
COSMOS 2251 DEB         
1 35032U 93036AGV 24151.97982851  .00004704  00000+0  11662-2 0  9998
2 35032  73.8560   0.8223 0074653 322.5158 106.0678 14.50506415795189
COSMOS 2251 DEB         
1 35033U 93036AGW 24146.77393639  .00003226  00000+0  92156-3 0  9997
2 35033  74.0274 157.4543 0014278  30.6922 329.5067 14.45477795577322
COSMOS 2251 DEB         
1 35037U 93036AHA 24150.92698126  .00012061  00000+0  16534-2 0  9994
2 35037  73.9947 214.3459 0028251 160.1593 200.0688 14.78218823802918
COSMOS 2251 DEB         
1 35038U 93036AHB 24152.92591957  .00001733  00000+0  79175-3 0  9996
2 35038  74.1101 323.3317 0126473  93.5079  57.9998 14.18054729776102
COSMOS 2251 DEB         
1 35043U 93036AHG 24151.11245717  .00015193  00000+0  37298-2 0  9996
2 35043  73.9648  43.8166 0152990  21.2161 339.5248 14.45479499783010
COSMOS 2251 DEB         
1 35045U 93036AHJ 24150.15225698  .00001009  00000+0  62823-3 0  9991
2 35045  73.7211 324.6584 0185385 291.0679  67.0716 13.98228042767732
COSMOS 2251 DEB         
1 35060U 93036AHP 24146.85087883  .00001639  00000+0  53590-3 0  9992
2 35060  74.0386 210.8356 0017526  75.6372 284.6726 14.39234130791585
COSMOS 2251 DEB         
1 35061U 93036AHQ 24152.81566645  .00005354  00000+0  11000-2 0  9991
2 35061  74.0480 301.1575 0046257 197.3341 162.6248 14.60184493804779
COSMOS 2251 DEB         
1 35062U 93036AHR 24153.60455331  .00005349  00000+0  25002-2 0  9990
2 35062  74.0865  10.1916 0146932 149.1801 211.8073 14.14984070775644
COSMOS 2251 DEB         
1 35065U 93036AHU 24148.37591722  .00001522  00000+0  46727-3 0  9993
2 35065  74.0208 165.3709 0018588  64.7380 295.5700 14.42378492602034
COSMOS 2251 DEB         
1 35067U 93036AHW 24150.99415442  .00036780  00000+0  32776-2 0  9992
2 35067  73.7445  17.1885 0040248  96.5320 264.0447 14.95212469802679
COSMOS 2251 DEB         
1 35071U 93036AJA 24148.96822150  .00005418  00000+0  55982-3 0  9998
2 35071  73.9385 238.5671 0094200 271.4571  87.5819 14.87122903591085
COSMOS 2251 DEB         
1 35073U 93036AJC 24147.90689347  .00009511  00000+0  17006-2 0  9994
2 35073  74.0149  10.0542 0028196 254.1687 105.6373 14.66734497591074
COSMOS 2251 DEB         
1 35076U 93036AJF 24148.52393254  .00013969  00000+0  16759-2 0  9991
2 35076  73.9641  78.1133 0049699  67.7308 292.9129 14.83166768  7724
COSMOS 2251 DEB         
1 35278U 93036AJG 24153.26300679  .00082824  00000+0  64944-2 0  9996
2 35278  74.0226  86.5621 0035737 235.8973 248.9024 15.00019563795738
